PANDORA
1 67395U 80229J   26031.97334491  .00000000  00000-0  37770-3 0    09
2 67395  97.7980  32.8006 0004588 203.3806  55.2100 14.87762987    06
